NORAD_CAT_ID,OBJECT_NAME,OBJECT_TYPE,EPOCH,MEAN_MOTION,ECCENTRICITY,INCLINATION,RA_OF_ASC_NODE,ARG_OF_PERICENTER,MEAN_ANOMALY,BSTAR,MEAN_MOTION_DOT,MEAN_MOTION_DDOT,TLE_LINE0,TLE_LINE1,TLE_LINE2,SEMIMAJOR_AXIS,PERIOD,APOGEE,PERIGEE,DECAYED
53150.0,STARLINK-4038,PAYLOAD,2023-07-08 02:17:30,15.08842139,0.0001175,53.2161,223.7358,62.9002,297.211,7.2477e-05,8.66e-06,0.0,0 STARLINK-4038,1 53150U 22083U   23189.09548955  .00000866  00000-0  72477-4 0  9998,2 53150  53.2161 223.7358 0001175  62.9002 297.2110 15.08842139 54706,6917.874,95.437,540.552,538.926,0.0
53150.0,STARLINK-4038,PAYLOAD,2023-07-09 08:29:50,15.08839376,0.0001111,53.2154,218.0854,65.3628,294.748,1.9525e-05,2.3e-07,0.0,0 STARLINK-4038,1 53150U 22083U   23190.35405093  .00000023  00000-0  19525-4 0  9994,2 53150  53.2154 218.0854 0001111  65.3628 294.7480 15.08839376 54898,6917.882,95.438,540.516,538.979,0.0
53150.0,STARLINK-4038,PAYLOAD,2023-07-10 11:31:23,15.08838902,0.0001123,53.2157,213.0304,66.6826,293.4285,5.8285e-05,6.4e-06,0.0,0 STARLINK-4038,1 53150U 22083U   23191.48013098  .00000640  00000-0  58285-4 0  9990,2 53150  53.2157 213.0304 0001123  66.6826 293.4285 15.08838902 55066,6917.884,95.438,540.526,538.972,0.0
53150.0,STARLINK-4038,PAYLOAD,2023-07-11 17:43:43,15.08835506,0.0001169,53.2157,207.3803,65.8676,294.2438,3.9681e-05,3.44e-06,0.0,0 STARLINK-4038,1 53150U 22083U   23192.73869620  .00000344  00000-0  39681-4 0  9999,2 53150  53.2157 207.3803 0001169  65.8676 294.2438 15.08835506 55257,6917.894,95.438,540.568,538.95,0.0
53150.0,STARLINK-4038,PAYLOAD,2023-07-13 17:25:17,15.08837023,0.0001158,53.2158,198.4586,74.5904,285.5216,5.1263e-05,5.28e-06,0.0,0 STARLINK-4038,1 53150U 22083U   23194.72589898  .00000528  00000-0  51263-4 0  9990,2 53150  53.2158 198.4586 0001158  74.5904 285.5216 15.08837023 55551,6917.889,95.438,540.556,538.953,0.0
53150.0,STARLINK-4038,PAYLOAD,2023-07-15 05:59:09,15.08845734,0.0001184,53.2159,191.619,74.3895,285.7228,9.0589e-05,1.154e-05,0.0,0 STARLINK-4038,1 53150U 22083U   23196.24941379  .00001154  00000-0  90589-4 0  9995,2 53150  53.2159 191.6190 0001184  74.3895 285.7228 15.08845734 55782,6917.863,95.437,540.547,538.909,0.0
53150.0,STARLINK-4038,PAYLOAD,2023-07-15 23:28:24,15.08838716,0.0001219,53.2154,188.3483,73.1973,286.9153,5.8472e-05,6.43e-06,0.0,0 STARLINK-4038,1 53150U 22083U   23196.97805802  .00000643  00000-0  58472-4 0  9992,2 53150  53.2154 188.3483 0001219  73.1973 286.9153 15.08838716 55892,6917.884,95.438,540.593,538.906,0.0
53150.0,STARLINK-4038,PAYLOAD,2023-07-17 08:51:30,15.08840482,0.0001299,53.2163,182.1031,81.8302,278.2838,3.9279e-05,3.37e-06,0.0,0 STARLINK-4038,1 53150U 22083U   23198.36909758  .00000337  00000-0  39279-4 0  9996,2 53150  53.2163 182.1031 0001299  81.8302 278.2838 15.08840482 56105,6917.879,95.438,540.643,538.845,0.0
53150.0,STARLINK-4038,PAYLOAD,2023-07-19 02:11:32,15.08835086,0.0001318,53.2168,174.3719,81.6829,278.4312,2.3231e-05,8.2e-07,0.0,0 STARLINK-4038,1 53150U 22083U   23200.09134323  .00000082  00000-0  23231-4 0  9996,2 53150  53.2168 174.3719 0001318  81.6829 278.4312 15.08835086 56361,6917.895,95.438,540.672,538.849,0.0
53150.0,STARLINK-4038,PAYLOAD,2023-07-20 06:48:28,15.08836578,0.0001335,53.2171,169.0183,90.5422,269.5723,-8.8593e-06,-4.29e-06,0.0,0 STARLINK-4038,1 53150U 22083U   23201.28366680 -.00000429  00000-0 -88593-5 0  9991,2 53150  53.2171 169.0183 0001335  90.5422 269.5723 15.08836578 56542,6917.891,95.438,540.679,538.832,0.0
53150.0,STARLINK-4038,PAYLOAD,2023-07-21 05:03:53,15.08831214,0.0001269,53.2167,164.8546,93.3535,266.7602,1.5661e-05,-3.9e-07,0.0,0 STARLINK-4038,1 53150U 22083U   23202.21103259 -.00000039  00000-0  15661-4 0  9997,2 53150  53.2167 164.8546 0001269  93.3535 266.7602 15.08831214 56687,6917.907,95.438,540.65,538.894,0.0
53150.0,STARLINK-4038,PAYLOAD,2023-07-24 07:46:59,15.08849166,0.0001585,53.2172,150.8804,106.2861,253.8305,2.4469e-05,1.02e-06,0.0,0 STARLINK-4038,1 53150U 22083U   23205.32430187  .00000102  00000-0  24469-4 0  9991,2 53150  53.2172 150.8804 0001585 106.2861 253.8305 15.08849166 56527,6917.852,95.437,540.814,538.621,0.0
53150.0,STARLINK-4038,PAYLOAD,2023-07-26 02:42:24,15.08845187,0.0001323,53.2171,142.8531,100.9657,259.1484,5.3231e-05,5.59e-06,0.0,0 STARLINK-4038,1 53150U 22083U   23207.11278602  .00000559  00000-0  53231-4 0  9997,2 53150  53.2171 142.8531 0001323 100.9657 259.1484 15.08845187 56793,6917.865,95.437,540.645,538.814,0.0
53150.0,STARLINK-4038,PAYLOAD,2023-07-27 02:33:12,15.08923231,0.000109,53.2178,138.3956,114.7329,245.3777,-0.00073913,-0.00012059,0.0,0 STARLINK-4038,1 53150U 22083U   23208.10639879 -.00012059  00000-0 -73913-3 0  9992,2 53150  53.2178 138.3956 0001090 114.7329 245.3777 15.08923231 57577,6917.626,95.432,540.245,538.737,0.0
53150.0,STARLINK-4038,PAYLOAD,2023-07-27 05:43:57,15.08853173,0.000125,53.2166,137.798,95.2304,264.8831,0.00013684,1.891e-05,0.0,0 STARLINK-4038,1 53150U 22083U   23208.23885788  .00001891  00000-0  13684-3 0  9997,2 53150  53.2166 137.7980 0001250  95.2304 264.8831 15.08853173 57594,6917.84,95.437,540.57,538.84,0.0
53150.0,STARLINK-4038,PAYLOAD,2023-07-27 18:27:04,15.08829003,0.0001627,53.2155,135.4172,87.9642,272.1536,-6.7026e-05,-1.354e-05,0.0,0 STARLINK-4038,1 53150U 22083U   23208.76880103 -.00001354  00000-0 -67026-4 0  9997,2 53150  53.2155 135.4172 0001627  87.9642 272.1536 15.08829003 57679,6917.914,95.438,540.905,538.653,0.0
53150.0,STARLINK-4038,PAYLOAD,2023-07-28 03:59:23,15.08830666,0.0001262,53.2174,133.6339,103.9372,256.1761,-5.2141e-05,-1.117e-05,0.0,0 STARLINK-4038,1 53150U 22083U   23209.16624147 -.00001117  00000-0 -52141-4 0  9995,2 53150  53.2174 133.6339 0001262 103.9372 256.1761 15.08830666 57106,6917.909,95.438,540.647,538.901,0.0
53150.0,STARLINK-4038,PAYLOAD,2023-07-28 18:17:51,15.08840488,9.35e-05,53.2156,130.9559,103.0946,257.015,-6.2494e-05,-1.282e-05,0.0,0 STARLINK-4038,1 53150U 22083U   23209.76239784 -.00001282  00000-0 -62494-4 0  9995,2 53150  53.2156 130.9559 0000935 103.0946 257.0150 15.08840488 57828,6917.879,95.438,540.391,539.097,0.0
53150.0,STARLINK-4038,PAYLOAD,2023-07-29 02:14:46,15.08850644,0.0001063,53.2169,129.471,101.8827,258.2284,5.6098e-05,6.05e-06,0.0,0 STARLINK-4038,1 53150U 22083U   23210.09358854  .00000605  00000-0  56098-4 0  9992,2 53150  53.2169 129.4710 0001063 101.8827 258.2284 15.08850644 57872,6917.848,95.437,540.448,538.977,0.0
53150.0,STARLINK-4038,PAYLOAD,2023-07-29 11:47:05,15.08841139,0.0001149,53.2164,127.6867,94.7405,265.3718,0.00011052,1.472e-05,0.0,0 STARLINK-4038,1 53150U 22083U   23210.49103414  .00001472  00000-0  11052-3 0  9999,2 53150  53.2164 127.6867 0001149  94.7405 265.3718 15.08841139 57934,6917.877,95.437,540.537,538.947,0.0
53150.0,STARLINK-4038,PAYLOAD,2023-07-31 00:20:57,15.0884388,0.0001182,53.2164,120.8472,99.6343,260.4783,6.5978e-05,7.62e-06,0.0,0 STARLINK-4038,1 53150U 22083U   23212.01455720  .00000762  00000-0  65978-4 0  9997,2 53150  53.2164 120.8472 0001182  99.6343 260.4783 15.08843880 58162,6917.869,95.437,540.551,538.916,0.0
53150.0,STARLINK-4038,PAYLOAD,2023-08-01 00:11:44,15.08841415,0.00013,53.2176,116.3834,99.534,260.58,6.2836e-05,7.12e-06,0.0,0 STARLINK-4038,1 53150U 22083U   23213.00815941  .00000712  00000-0  62836-4 0  9997,2 53150  53.2176 116.3834 0001300  99.5340 260.5800 15.08841415 58315,6917.876,95.437,540.64,538.842,0.0
53150.0,STARLINK-4038,PAYLOAD,2023-08-02 22:17:55,15.0884879,0.0001242,53.2164,107.7639,87.0264,273.087,0.00020826,3.029e-05,0.0,0 STARLINK-4038,1 53150U 22083U   23214.92911684  .00003029  00000-0  20826-3 0  9996,2 53150  53.2164 107.7639 0001242  87.0264 273.0870 15.08848790 58602,6917.854,95.437,540.578,538.859,0.0
53150.0,STARLINK-4038,PAYLOAD,2023-08-03 22:08:43,15.08834276,0.0001333,53.2159,103.3011,106.6417,253.4721,-6.4282e-05,-1.311e-05,0.0,0 STARLINK-4038,1 53150U 22083U   23215.92272384 -.00001311  00000-0 -64282-4 0  9993,2 53150  53.2159 103.3011 0001333 106.6417 253.4721 15.08834276 58758,6917.898,95.438,540.685,538.841,0.0
53150.0,STARLINK-4038,PAYLOAD,2023-08-04 23:34:53,15.08837198,0.0001208,53.2158,98.5459,86.521,273.592,0.00031834,4.782e-05,0.0,0 STARLINK-4038,1 53150U 22083U   23216.98256755  .00004782  00000-0  31834-3 0  9993,2 53150  53.2158  98.5459 0001208  86.5210 273.5920 15.08837198 58914,6917.889,95.438,540.59,538.918,0.0
53150.0,STARLINK-4038,PAYLOAD,2023-08-05 23:25:39,15.08864744,0.000113,53.2152,94.086,82.9312,277.1808,0.00063454,9.832e-05,0.0,0 STARLINK-4038,1 53150U 22083U   23217.97615628  .00009832  00000-0  63454-3 0  9995,2 53150  53.2152  94.0860 0001130  82.9312 277.1808 15.08864744 59061,6917.805,95.436,540.451,538.888,0.0
53150.0,STARLINK-4038,PAYLOAD,2023-08-06 10:33:22,15.08840367,0.0001487,53.214,92.0067,71.698,288.4173,-0.00012255,-2.238e-05,0.0,0 STARLINK-4038,1 53150U 22083U   23218.43984201 -.00002238  00000-0 -12255-3 0  9991,2 53150  53.2140  92.0067 0001487  71.6980 288.4173 15.08840367 59139,6917.879,95.438,540.773,538.716,0.0
53150.0,STARLINK-4038,PAYLOAD,2023-08-06 12:08:45,15.08820165,0.0001183,53.2149,91.7069,73.5875,286.5247,-0.0006962,-0.00011345,0.0,0 STARLINK-4038,1 53150U 22083U   23218.50608681 -.00011345  00000-0 -69620-3 0  9991,2 53150  53.2149  91.7069 0001183  73.5875 286.5247 15.08820165 59149,6917.941,95.439,540.624,538.988,0.0
53150.0,STARLINK-4038,PAYLOAD,2023-08-07 08:48:47,15.08818687,0.0001146,53.2151,87.8406,68.1742,291.9372,0.00077714,0.00012095,0.0,0 STARLINK-4038,1 53150U 22083U   23219.36722203  .00012095  00000-0  77714-3 0  9997,2 53150  53.2151  87.8406 0001146  68.1742 291.9372 15.08818687 59274,6917.946,95.439,540.603,539.018,0.0
53150.0,STARLINK-4038,PAYLOAD,2023-08-07 21:31:53,15.08847238,0.0001155,53.2154,85.462,63.0123,297.0987,0.0015479,0.00024438,0.0,0 STARLINK-4038,1 53150U 22083U   23219.89714420  .00024438  00000-0  15479-2 0  9990,2 53150  53.2154  85.4620 0001155  63.0123 297.0987 15.08847238 59358,6917.858,95.437,540.522,538.924,0.0
